CCSDS_OMM_VERS = 2.0
CREATION_DATE  = 
ORIGINATOR     = 

OBJECT_NAME    = COSMOS 2242
OBJECT_ID      = 1993-024A
CENTER_NAME    = EARTH
REF_FRAME      = TEME
TIME_SYSTEM    = UTC
MEAN_ELEMENT_THEORY = SGP/SGP4

EPOCH          = 2026-03-25T22:47:53.139840
MEAN_MOTION    = 14.96615770
ECCENTRICITY   = .00149614
INCLINATION    = 82.5160
RA_OF_ASC_NODE = 251.1585
ARG_OF_PERICENTER = 248.8587
MEAN_ANOMALY   = 111.1037

EPHEMERIS_TYPE = 0
CLASSIFICATION_TYPE = U
NORAD_CAT_ID   = 22626
ELEMENT_SET_NO = 999
REV_AT_EPOCH   = 78282
BSTAR          = .18305279E-3
MEAN_MOTION_DOT = .2115E-4
MEAN_MOTION_DDOT = 0

CCSDS_OMM_VERS = 2.0
CREATION_DATE  = 
ORIGINATOR     = 

OBJECT_NAME    = SL-16 R/B
OBJECT_ID      = 1993-059B
CENTER_NAME    = EARTH
REF_FRAME      = TEME
TIME_SYSTEM    = UTC
MEAN_ELEMENT_THEORY = SGP/SGP4

EPOCH          = 2026-03-25T23:49:46.485696
MEAN_MOTION    = 14.17235422
ECCENTRICITY   = .00175691
INCLINATION    = 70.9925
RA_OF_ASC_NODE = 336.7489
ARG_OF_PERICENTER = 192.9432
MEAN_ANOMALY   = 167.1244

EPHEMERIS_TYPE = 0
CLASSIFICATION_TYPE = U
NORAD_CAT_ID   = 22803
ELEMENT_SET_NO = 999
REV_AT_EPOCH   = 68184
BSTAR          = -.19936456E-4
MEAN_MOTION_DOT = -.88E-6
MEAN_MOTION_DDOT = 0

CCSDS_OMM_VERS = 2.0
CREATION_DATE  = 
ORIGINATOR     = 

OBJECT_NAME    = ARIANE 40 R/B
OBJECT_ID      = 1993-061H
CENTER_NAME    = EARTH
REF_FRAME      = TEME
TIME_SYSTEM    = UTC
MEAN_ELEMENT_THEORY = SGP/SGP4

EPOCH          = 2026-03-25T21:34:51.731904
MEAN_MOTION    = 14.32869311
ECCENTRICITY   = .00098553
INCLINATION    = 98.4887
RA_OF_ASC_NODE = 153.4648
ARG_OF_PERICENTER = 231.6630
MEAN_ANOMALY   = 128.3669

EPHEMERIS_TYPE = 0
CLASSIFICATION_TYPE = U
NORAD_CAT_ID   = 22830
ELEMENT_SET_NO = 999
REV_AT_EPOCH   = 69642
BSTAR          = .92925493E-4
MEAN_MOTION_DOT = .211E-5
MEAN_MOTION_DDOT = 0

CCSDS_OMM_VERS = 2.0
CREATION_DATE  = 
ORIGINATOR     = 

OBJECT_NAME    = COSMOS 2278
OBJECT_ID      = 1994-023A
CENTER_NAME    = EARTH
REF_FRAME      = TEME
TIME_SYSTEM    = UTC
MEAN_ELEMENT_THEORY = SGP/SGP4

EPOCH          = 2026-03-25T20:44:21.589728
MEAN_MOTION    = 14.14376591
ECCENTRICITY   = .0009057
INCLINATION    = 71.0525
RA_OF_ASC_NODE = 141.2608
ARG_OF_PERICENTER = 347.4509
MEAN_ANOMALY   = 12.6387

EPHEMERIS_TYPE = 0
CLASSIFICATION_TYPE = U
NORAD_CAT_ID   = 23087
ELEMENT_SET_NO = 999
REV_AT_EPOCH   = 64709
BSTAR          = -.10657207E-3
MEAN_MOTION_DOT = -.251E-5
MEAN_MOTION_DDOT = 0

CCSDS_OMM_VERS = 2.0
CREATION_DATE  = 
ORIGINATOR     = 

OBJECT_NAME    = SL-16 R/B
OBJECT_ID      = 1994-023B
CENTER_NAME    = EARTH
REF_FRAME      = TEME
TIME_SYSTEM    = UTC
MEAN_ELEMENT_THEORY = SGP/SGP4

EPOCH          = 2026-03-25T21:40:50.357568
MEAN_MOTION    = 14.15013101
ECCENTRICITY   = .00054494
INCLINATION    = 71.0009
RA_OF_ASC_NODE = 36.8344
ARG_OF_PERICENTER = 270.2059
MEAN_ANOMALY   = 89.8439

EPHEMERIS_TYPE = 0
CLASSIFICATION_TYPE = U
NORAD_CAT_ID   = 23088
ELEMENT_SET_NO = 999
REV_AT_EPOCH   = 64838
BSTAR          = .18634273E-3
MEAN_MOTION_DOT = .313E-5
MEAN_MOTION_DDOT = 0

CCSDS_OMM_VERS = 2.0
CREATION_DATE  = 
ORIGINATOR     = 

OBJECT_NAME    = SL-16 R/B
OBJECT_ID      = 1994-074B
CENTER_NAME    = EARTH
REF_FRAME      = TEME
TIME_SYSTEM    = UTC
MEAN_ELEMENT_THEORY = SGP/SGP4

EPOCH          = 2026-03-25T23:00:27.238176
MEAN_MOTION    = 14.79425599
ECCENTRICITY   = .00070818
INCLINATION    = 97.7086
RA_OF_ASC_NODE = 115.1161
ARG_OF_PERICENTER = 156.7417
MEAN_ANOMALY   = 266.2142

EPHEMERIS_TYPE = 0
CLASSIFICATION_TYPE = U
NORAD_CAT_ID   = 23343
ELEMENT_SET_NO = 999
REV_AT_EPOCH   = 68965
BSTAR          = .66837558E-4
MEAN_MOTION_DOT = .45E-5
MEAN_MOTION_DDOT = 0

CCSDS_OMM_VERS = 2.0
CREATION_DATE  = 
ORIGINATOR     = 

OBJECT_NAME    = SL-16 R/B
OBJECT_ID      = 1994-077B
CENTER_NAME    = EARTH
REF_FRAME      = TEME
TIME_SYSTEM    = UTC
MEAN_ELEMENT_THEORY = SGP/SGP4

EPOCH          = 2026-03-25T22:46:59.825856
MEAN_MOTION    = 14.15568968
ECCENTRICITY   = .00021243
INCLINATION    = 70.9839
RA_OF_ASC_NODE = 318.2840
ARG_OF_PERICENTER = 198.2216
MEAN_ANOMALY   = 161.8832

EPHEMERIS_TYPE = 0
CLASSIFICATION_TYPE = U
NORAD_CAT_ID   = 23405
ELEMENT_SET_NO = 999
REV_AT_EPOCH   = 61853
BSTAR          = .51227394E-4
MEAN_MOTION_DOT = .52E-6
MEAN_MOTION_DDOT = 0

CCSDS_OMM_VERS = 2.0
CREATION_DATE  = 
ORIGINATOR     = 

OBJECT_NAME    = ARIANE 40+ R/B
OBJECT_ID      = 1995-021B
CENTER_NAME    = EARTH
REF_FRAME      = TEME
TIME_SYSTEM    = UTC
MEAN_ELEMENT_THEORY = SGP/SGP4

EPOCH          = 2026-03-25T10:38:59.744256
MEAN_MOTION    = 14.39783404
ECCENTRICITY   = .00079661
INCLINATION    = 98.4469
RA_OF_ASC_NODE = 155.7108
ARG_OF_PERICENTER = 95.8031
MEAN_ANOMALY   = 276.0236

EPHEMERIS_TYPE = 0
CLASSIFICATION_TYPE = U
NORAD_CAT_ID   = 23561
ELEMENT_SET_NO = 999
REV_AT_EPOCH   = 62151
BSTAR          = .10700703E-3
MEAN_MOTION_DOT = .292E-5
MEAN_MOTION_DDOT = 0

CCSDS_OMM_VERS = 2.0
CREATION_DATE  = 
ORIGINATOR     = 

OBJECT_NAME    = SL-16 R/B
OBJECT_ID      = 1995-058B
CENTER_NAME    = EARTH
REF_FRAME      = TEME
TIME_SYSTEM    = UTC
MEAN_ELEMENT_THEORY = SGP/SGP4

EPOCH          = 2026-03-25T21:16:25.372128
MEAN_MOTION    = 14.15500186
ECCENTRICITY   = .00101261
INCLINATION    = 71.0211
RA_OF_ASC_NODE = 146.2531
ARG_OF_PERICENTER = 95.7403
MEAN_ANOMALY   = 264.4875

EPHEMERIS_TYPE = 0
CLASSIFICATION_TYPE = U
NORAD_CAT_ID   = 23705
ELEMENT_SET_NO = 999
REV_AT_EPOCH   = 57014
BSTAR          = -.84096665E-4
MEAN_MOTION_DOT = -.212E-5
MEAN_MOTION_DDOT = 0

CCSDS_OMM_VERS = 2.0
CREATION_DATE  = 
ORIGINATOR     = 

OBJECT_NAME    = SL-16 R/B
OBJECT_ID      = 1996-051B
CENTER_NAME    = EARTH
REF_FRAME      = TEME
TIME_SYSTEM    = UTC
MEAN_ELEMENT_THEORY = SGP/SGP4

EPOCH          = 2026-03-25T21:19:08.079744
MEAN_MOTION    = 14.12420140
ECCENTRICITY   = .00137365
INCLINATION    = 70.7590
RA_OF_ASC_NODE = 140.9547
ARG_OF_PERICENTER = 122.1237
MEAN_ANOMALY   = 238.1217

EPHEMERIS_TYPE = 0
CLASSIFICATION_TYPE = U
NORAD_CAT_ID   = 24298
ELEMENT_SET_NO = 999
REV_AT_EPOCH   = 52393
BSTAR          = .72502473E-4
MEAN_MOTION_DOT = .85E-6
MEAN_MOTION_DDOT = 0

CCSDS_OMM_VERS = 2.0
CREATION_DATE  = 
ORIGINATOR     = 

OBJECT_NAME    = ORBVIEW 2 (SEASTAR)
OBJECT_ID      = 1997-037A
CENTER_NAME    = EARTH
REF_FRAME      = TEME
TIME_SYSTEM    = UTC
MEAN_ELEMENT_THEORY = SGP/SGP4

EPOCH          = 2026-03-25T22:29:35.009664
MEAN_MOTION    = 14.35505911
ECCENTRICITY   = .00025484
INCLINATION    = 98.8597
RA_OF_ASC_NODE = 249.6819
ARG_OF_PERICENTER = 37.5515
MEAN_ANOMALY   = 322.5847

EPHEMERIS_TYPE = 0
CLASSIFICATION_TYPE = U
NORAD_CAT_ID   = 24883
ELEMENT_SET_NO = 999
REV_AT_EPOCH   = 51080
BSTAR          = .11633965E-3
MEAN_MOTION_DOT = .288E-5
MEAN_MOTION_DDOT = 0

CCSDS_OMM_VERS = 2.0
CREATION_DATE  = 
ORIGINATOR     = 

OBJECT_NAME    = SL-16 R/B
OBJECT_ID      = 1998-043G
CENTER_NAME    = EARTH
REF_FRAME      = TEME
TIME_SYSTEM    = UTC
MEAN_ELEMENT_THEORY = SGP/SGP4

EPOCH          = 2026-03-25T14:07:25.560192
MEAN_MOTION    = 14.26053338
ECCENTRICITY   = .0009369
INCLINATION    = 98.8281
RA_OF_ASC_NODE = 38.0672
ARG_OF_PERICENTER = 334.4546
MEAN_ANOMALY   = 25.6169

EPHEMERIS_TYPE = 0
CLASSIFICATION_TYPE = U
NORAD_CAT_ID   = 25400
ELEMENT_SET_NO = 999
REV_AT_EPOCH   = 44125
BSTAR          = .53276E-4
MEAN_MOTION_DOT = .82E-6
MEAN_MOTION_DDOT = 0

