COSMOS 2242             
1 22626U 93024A   26084.94992060  .00002115  00000+0  18305-3 0  9993
2 22626  82.5160 251.1585 0014961 248.8587 111.1037 14.96615770782829
SL-16 R/B               
1 22803U 93059B   26084.99289914 -.00000088  00000+0 -19936-4 0  9991
2 22803  70.9925 336.7489 0017569 192.9432 167.1244 14.17235422681840
ARIANE 40 R/B           
1 22830U 93061H   26084.89920986  .00000211  00000+0  92925-4 0  9999
2 22830  98.4887 153.4648 0009855 231.6630 128.3669 14.32869311696420
COSMOS 2278             
1 23087U 94023A   26084.86413877 -.00000251  00000+0 -10657-3 0  9993
2 23087  71.0525 141.2608 0009057 347.4509  12.6387 14.14376591647091
SL-16 R/B               
1 23088U 94023B   26084.90336062  .00000313  00000+0  18634-3 0  9999
2 23088  71.0009  36.8344 0005449 270.2059  89.8439 14.15013101648382
SL-16 R/B               
1 23343U 94074B   26084.95864859  .00000450  00000+0  66838-4 0  9996
2 23343  97.7086 115.1161 0007081 156.7417 266.2142 14.79425599689659
SL-16 R/B               
1 23405U 94077B   26084.94930354  .00000052  00000+0  51227-4 0  9995
2 23405  70.9839 318.2840 0002124 198.2216 161.8832 14.15568968618531
ARIANE 40+ R/B          
1 23561U 95021B   26084.44374704  .00000292  00000+0  10701-3 0  9991
2 23561  98.4469 155.7108 0007966  95.8031 276.0236 14.39783404621514
SL-16 R/B               
1 23705U 95058B   26084.88640477 -.00000212  00000+0 -84097-4 0  9996
2 23705  71.0211 146.2531 0010126  95.7403 264.4875 14.15500186570145
SL-16 R/B               
1 24298U 96051B   26084.88828796  .00000085  00000+0  72502-4 0  9994
2 24298  70.7590 140.9547 0013736 122.1237 238.1217 14.12420140523938
ORBVIEW 2 (SEASTAR)     
1 24883U 97037A   26084.93721076  .00000288  00000+0  11634-3 0  9991
2 24883  98.8597 249.6819 0002548  37.5515 322.5847 14.35505911510806
SL-16 R/B               
1 25400U 98043G   26084.58849028  .00000082  00000+0  53276-4 0  9995
2 25400  98.8281  38.0672 0009369 334.4546  25.6169 14.26053338441251
